{
  "type": "FeatureCollection",
  "features": [
    {
      "type": "Feature",
      "properties": {
        "norad_id": 39227,
        "name": "ARIRANG-5 (KOMPSAT-5)",
        "group": "resource",
        "lat": -1.4618006709678057,
        "lon": 1.5703074873751734,
        "alt_km": 558.2168958499105,
        "timestamp": "2025-12-23T14:49:08.986498+00:00",
        "meta_object_name": "ARIRANG-5 (KOMPSAT-5)",
        "meta_object_id": "2013-042A",
        "meta_epoch": "2025-12-23T07:37:50.853216",
        "meta_mean_motion": 15.04474551,
        "meta_eccentricity": 0.00031101,
        "meta_inclination": 97.6158,
        "meta_ra_of_asc_node": 181.4708,
        "meta_arg_of_pericenter": 33.3185,
        "meta_mean_anomaly": 326.8236,
        "meta_ephemeris_type": 0,
        "meta_classification_type": "U",
        "meta_norad_cat_id": 39227,
        "meta_element_set_no": 999,
        "meta_rev_at_epoch": 67741,
        "meta_bstar": 0.00012460616,
        "meta_mean_motion_dot": 1.682e-05,
        "meta_mean_motion_ddot": 0,
        "tle_line1": "1 39227U 13042A   25357.31794969  .00001682  00000+0  12461-3 0  9996",
        "tle_line2": "2 39227  97.6158 181.4708 0003110  33.3185 326.8236 15.04474551677419"
      },
      "geometry": {
        "type": "Point",
        "coordinates": [
          1.5703074873751734,
          -1.4618006709678057
        ]
      }
    },
    {
      "type": "Feature",
      "properties": {
        "norad_id": 39418,
        "name": "SKYSAT-A",
        "group": "resource",
        "lat": 66.52533811086938,
        "lon": -115.06943108018352,
        "alt_km": 523.3145213067346,
        "timestamp": "2025-12-23T14:49:08.986510+00:00",
        "meta_object_name": "SKYSAT-A",
        "meta_object_id": "2013-066C",
        "meta_epoch": "2025-12-23T03:12:07.887168",
        "meta_mean_motion": 15.11675524,
        "meta_eccentricity": 0.00214656,
        "meta_inclination": 97.4089,
        "meta_ra_of_asc_node": 47.0259,
        "meta_arg_of_pericenter": 199.0387,
        "meta_mean_anomaly": 161.0043,
        "meta_ephemeris_type": 0,
        "meta_classification_type": "U",
        "meta_norad_cat_id": 39418,
        "meta_element_set_no": 999,
        "meta_rev_at_epoch": 66187,
        "meta_bstar": 0.00019916729,
        "meta_mean_motion_dot": 3.343e-05,
        "meta_mean_motion_ddot": 0,
        "tle_line1": "1 39418U 13066C   25357.13342462  .00003343  00000+0  19917-3 0  9990",
        "tle_line2": "2 39418  97.4089  47.0259 0021465 199.0387 161.0043 15.11675524661876"
      },
      "geometry": {
        "type": "Point",
        "coordinates": [
          -115.06943108018352,
          66.52533811086938
        ]
      }
    },
    {
      "type": "Feature",
      "properties": {
        "norad_id": 39419,
        "name": "DUBAISAT-2",
        "group": "resource",
        "lat": 51.19400714947082,
        "lon": 177.04860909019018,
        "alt_km": 542.266587275898,
        "timestamp": "2025-12-23T14:49:08.986521+00:00",
        "meta_object_name": "DUBAISAT-2",
        "meta_object_id": "2013-066D",
        "meta_epoch": "2025-12-23T06:17:31.780032",
        "meta_mean_motion": 15.08452921,
        "meta_eccentricity": 0.00099881,
        "meta_inclination": 97.4454,
        "meta_ra_of_asc_node": 347.3455,
        "meta_arg_of_pericenter": 280.2729,
        "meta_mean_anomaly": 79.7374,
        "meta_ephemeris_type": 0,
        "meta_classification_type": "U",
        "meta_norad_cat_id": 39419,
        "meta_element_set_no": 999,
        "meta_rev_at_epoch": 65985,
        "meta_bstar": 0.00042530654,
        "meta_mean_motion_dot": 6.571e-05,
        "meta_mean_motion_ddot": 0,
        "tle_line1": "1 39419U 13066D   25357.26217338  .00006571  00000+0  42531-3 0  9992",
        "tle_line2": "2 39419  97.4454 347.3455 0009988 280.2729  79.7374 15.08452921659853"
      },
      "geometry": {
        "type": "Point",
        "coordinates": [
          177.04860909019018,
          51.19400714947082
        ]
      }
    },
    {
      "type": "Feature",
      "properties": {
        "norad_id": 39574,
        "name": "GPM-CORE",
        "group": "resource",
        "lat": -64.89213935933118,
        "lon": 90.63777544741662,
        "alt_km": 432.87316343709244,
        "timestamp": "2025-12-23T14:49:08.986532+00:00",
        "meta_object_name": "GPM-CORE",
        "meta_object_id": "2014-009C",
        "meta_epoch": "2025-12-23T01:12:53.161056",
        "meta_mean_motion": 15.44616492,
        "meta_eccentricity": 0.00092266,
        "meta_inclination": 64.9722,
        "meta_ra_of_asc_node": 178.1525,
        "meta_arg_of_pericenter": 249.5153,
        "meta_mean_anomaly": 110.4998,
        "meta_ephemeris_type": 0,
        "meta_classification_type": "U",
        "meta_norad_cat_id": 39574,
        "meta_element_set_no": 999,
        "meta_rev_at_epoch": 67060,
        "meta_bstar": 0.00019310777,
        "meta_mean_motion_dot": 8.805e-05,
        "meta_mean_motion_ddot": 0,
        "tle_line1": "1 39574U 14009C   25357.05061529  .00008805  00000+0  19311-3 0  9990",
        "tle_line2": "2 39574  64.9722 178.1525 0009226 249.5153 110.4998 15.44616492670600"
      },
      "geometry": {
        "type": "Point",
        "coordinates": [
          90.63777544741662,
          -64.89213935933118
        ]
      }
    },
    {
      "type": "Feature",
      "properties": {
        "norad_id": 39634,
        "name": "SENTINEL-1A",
        "group": "resource",
        "lat": -7.950539492554494,
        "lon": 3.848887474279923,
        "alt_km": 699.714502668734,
        "timestamp": "2025-12-23T14:49:08.986543+00:00",
        "meta_object_name": "SENTINEL-1A",
        "meta_object_id": "2014-016A",
        "meta_epoch": "2025-12-23T06:37:38.377632",
        "meta_mean_motion": 14.592017,
        "meta_eccentricity": 0.00012715,
        "meta_inclination": 98.1796,
        "meta_ra_of_asc_node": 2.3616,
        "meta_arg_of_pericenter": 83.2884,
        "meta_mean_anomaly": 276.8461,
        "meta_ephemeris_type": 0,
        "meta_classification_type": "U",
        "meta_norad_cat_id": 39634,
        "meta_element_set_no": 999,
        "meta_rev_at_epoch": 62436,
        "meta_bstar": 4.3701162e-05,
        "meta_mean_motion_dot": 1.6e-06,
        "meta_mean_motion_ddot": 0,
        "tle_line1": "1 39634U 14016A   25357.27613863  .00000160  00000+0  43701-4 0  9990",
        "tle_line2": "2 39634  98.1796   2.3616 0001271  83.2884 276.8461 14.59201700624363"
      },
      "geometry": {
        "type": "Point",
        "coordinates": [
          3.848887474279923,
          -7.950539492554494
        ]
      }
    },
    {
      "type": "Feature",
      "properties": {
        "norad_id": 39731,
        "name": "KAZEOSAT 1",
        "group": "resource",
        "lat": 16.37270483643346,
        "lon": 66.80984513851315,
        "alt_km": 752.1288873252988,
        "timestamp": "2025-12-23T14:49:08.986555+00:00",
        "meta_object_name": "KAZEOSAT 1",
        "meta_object_id": "2014-024A",
        "meta_epoch": "2025-12-23T08:04:53.960160",
        "meta_mean_motion": 14.42068191,
        "meta_eccentricity": 0.00012106,
        "meta_inclination": 98.3424,
        "meta_ra_of_asc_node": 69.0063,
        "meta_arg_of_pericenter": 97.7524,
        "meta_mean_anomaly": 262.3803,
        "meta_ephemeris_type": 0,
        "meta_classification_type": "U",
        "meta_norad_cat_id": 39731,
        "meta_element_set_no": 999,
        "meta_rev_at_epoch": 61321,
        "meta_bstar": 8.6266251e-05,
        "meta_mean_motion_dot": 2.4e-06,
        "meta_mean_motion_ddot": 0,
        "tle_line1": "1 39731U 14024A   25357.33673565  .00000240  00000+0  86266-4 0  9991",
        "tle_line2": "2 39731  98.3424  69.0063 0001210  97.7524 262.3803 14.42068191613210"
      },
      "geometry": {
        "type": "Point",
        "coordinates": [
          66.80984513851315,
          16.37270483643346
        ]
      }
    },
    {
      "type": "Feature",
      "properties": {
        "norad_id": 39766,
        "name": "ALOS-2",
        "group": "resource",
        "lat": -74.75892366758178,
        "lon": 123.04665439285013,
        "alt_km": 639.3146336233758,
        "timestamp": "2025-12-23T14:49:08.986566+00:00",
        "meta_object_name": "ALOS-2",
        "meta_object_id": "2014-029A",
        "meta_epoch": "2025-12-23T07:03:02.167776",
        "meta_mean_motion": 14.79467889,
        "meta_eccentricity": 0.00014177,
        "meta_inclination": 97.9226,
        "meta_ra_of_asc_node": 91.9903,
        "meta_arg_of_pericenter": 102.368,
        "meta_mean_anomaly": 257.769,
        "meta_ephemeris_type": 0,
        "meta_classification_type": "U",
        "meta_norad_cat_id": 39766,
        "meta_element_set_no": 999,
        "meta_rev_at_epoch": 62557,
        "meta_bstar": 0.00028495007,
        "meta_mean_motion_dot": 2.077e-05,
        "meta_mean_motion_ddot": 0,
        "tle_line1": "1 39766U 14029A   25357.29377509  .00002077  00000+0  28495-3 0  9997",
        "tle_line2": "2 39766  97.9226  91.9903 0001417 102.3680 257.7690 14.79467889625576"
      },
      "geometry": {
        "type": "Point",
        "coordinates": [
          123.04665439285013,
          -74.75892366758178
        ]
      }
    }
  ]
}